STARLINK-35972          
1 66638U 25271X   25360.63391491  .00054210  00000+0  13556-2 0  9991
2 66638  53.1593 121.2492 0001104  85.6164 274.4967 15.39620683  6350
STARLINK-35908          
1 66639U 25271Y   25360.75910082  .00050274  00000+0  12582-2 0  9992
2 66639  53.1602 120.6079 0001076  79.5752 280.5374 15.39628094  6375
STARLINK-35921          
1 66640U 25271Z   25360.63855929  .00068829  00000+0  17157-2 0  9997
2 66640  53.1603 121.2780 0001139  83.7084 276.4051 15.39611256  6355
STARLINK-35923          
1 66641U 25271AA  25360.75003471  .00076723  00000+0  19117-2 0  9998
2 66641  53.1608 120.3981 0001148  60.5742  16.1919 15.39573519  6113
STARLINK-35926          
1 66642U 25271AB  25360.75003471  .00076066  00000+0  18972-2 0  9997
2 66642  53.1608 120.4466 0001249  86.9203 325.9995 15.39547370  6110
STARLINK-35918          
1 66643U 25271AC  25360.68954316  .00035605  00000+0  89567-3 0  9996
2 66643  53.1610 120.8829 0001185  74.5312 285.5823 15.39629567  6361
STARLINK-35938          
1 66644U 25271AD  25360.75003471  .00076764  00000+0  19129-2 0  9999
2 66644  53.1607 120.4508 0001100  79.0422 331.9730 15.39571146  5841
SHENZHOU-22             
1 66645U 25272A   25360.22743832  .00019151  00000+0  23602-3 0  9994
2 66645  41.4680 294.7909 0008517 149.5046 210.6289 15.59708409265988
COSMOS 2597 (RODNIK-S *)
1 66647U 25273A   25360.73239654  .00000027  00000+0  12902-3 0  9998
2 66647  82.4993 277.7608 0007601 252.9766 107.0480 12.41952322  3873
COSMOS 2598 (RODNIK-S *)
1 66648U 25273B   25360.79048605  .00000030  00000+0  14733-3 0  9997
2 66648  82.5032 277.7088 0008248 203.3899 156.6807 12.43233707  3881
COSMOS 2599 (RODNIK-S *)
1 66649U 25273C   25360.74559606  .00000043  00000+0  24430-3 0  9990
2 66649  82.5050 277.7899 0006348 240.9092 119.1352 12.41152402  3871
BEE-1000                
1 66650U 25274A   25360.70503110  .00001717  00000+0  17603-3 0  9991
2 66650  97.7406 287.6373 0011225 200.3301 159.7472 14.91708342  4484
